start=new Date('2022-08-14T00:00:00.000Z').valueOf();
sats=[{"BSTAR":"0.00012090000000","EPOCH":"2022-08-13T09:27:50.747904","REV_AT_EPOCH":"6861","OBJECT_TYPE":"PAYLOAD","INCLINATION":"53.0529","PERIAPSIS":"546.169","CLASSIFICATION_TYPE":"U","MEAN_MOTION_DOT":"0.00001520","TIME_SYSTEM":"UTC","OBJECT_ID":"2021-041E","SITE":"AFETR","COUNTRY_CODE":"US","RCS_SIZE":"LARGE","PERIOD":"95.592","MEAN_MOTION":"15.06395399","TLE_LINE1":"1 48557U 21041E   22225.39433736  .00001520  00000-0  12090-3 0  9991","ECCENTRICITY":"0.00015280","FILE":"3535824","DECAY_DATE":null,"MEAN_MOTION_DDOT":"0.0000000000000","EPHEMERIS_TYPE":"0","GP_ID":"210137210","NORAD_CAT_ID":"48557","CENTER_NAME":"EARTH","OBJECT_NAME":"STARLINK-2155","RA_OF_ASC_NODE":"226.8276","ARG_OF_PERICENTER":"74.1690","APOAPSIS":"548.286","MEAN_ANOMALY":"285.9467","REF_FRAME":"TEME","TLE_LINE2":"2 48557  53.0529 226.8276 0001528  74.1690 285.9467 15.06395399 68613","SEMIMAJOR_AXIS":"6925.363","LAUNCH_DATE":"2021-05-15","ELEMENT_SET_NO":"999","MEAN_ELEMENT_THEORY":"SGP4"},{"OBJECT_TYPE":"PAYLOAD","INCLINATION":"53.0543","BSTAR":"0.00013389000000","EPOCH":"2022-08-13T09:22:31.223424","REV_AT_EPOCH":"6775","SITE":"AFETR","COUNTRY_CODE":"US","RCS_SIZE":"LARGE","PERIOD":"95.592","MEAN_MOTION":"15.06398192","TLE_LINE1":"1 48558U 21041F   22225.39063916  .00001713  00000-0  13389-3 0  9997","PERIAPSIS":"546.313","CLASSIFICATION_TYPE":"U","MEAN_MOTION_DOT":"0.00001713","TIME_SYSTEM":"UTC","OBJECT_ID":"2021-041F","NORAD_CAT_ID":"48558","ECCENTRICITY":"0.00013080","FILE":"3535824","DECAY_DATE":null,"MEAN_MOTION_DDOT":"0.0000000000000","EPHEMERIS_TYPE":"0","GP_ID":"210138462","LAUNCH_DATE":"2021-05-15","ELEMENT_SET_NO":"999","MEAN_ELEMENT_THEORY":"SGP4","CENTER_NAME":"EARTH","OBJECT_NAME":"STARLINK-2166","RA_OF_ASC_NODE":"226.8540","ARG_OF_PERICENTER":"78.0755","APOAPSIS":"548.125","MEAN_ANOMALY":"282.0380","TLE_LINE2":"2 48558  53.0543 226.8540 0001308  78.0755 282.0380 15.06398192 67755","REF_FRAME":"TEME","SEMIMAJOR_AXIS":"6925.354"},{"INCLINATION":"53.0544","OBJECT_TYPE":"PAYLOAD","REV_AT_EPOCH":"6859","EPOCH":"2022-08-13T07:03:10.369728","BSTAR":"-0.00001353800000","TLE_LINE1":"1 48559U 21041G   22225.29387002 -.00000483  00000-0 -13538-4 0  9994","MEAN_MOTION":"15.06386044","PERIOD":"95.593","RCS_SIZE":"LARGE","COUNTRY_CODE":"US","SITE":"AFETR","TIME_SYSTEM":"UTC","OBJECT_ID":"2021-041G","MEAN_MOTION_DOT":"-0.00000483","CLASSIFICATION_TYPE":"U","PERIAPSIS":"546.159","NORAD_CAT_ID":"48559","GP_ID":"210138712","EPHEMERIS_TYPE":"0","MEAN_MOTION_DDOT":"0.0000000000000","DECAY_DATE":null,"FILE":"3535824","ECCENTRICITY":"0.00015840","MEAN_ELEMENT_THEORY":"SGP4","ELEMENT_SET_NO":"999","LAUNCH_DATE":"2021-05-15","SEMIMAJOR_AXIS":"6925.391","TLE_LINE2":"2 48559  53.0544 227.2762 0001584  72.3730 287.7432 15.06386044 68590","REF_FRAME":"TEME","MEAN_ANOMALY":"287.7432","APOAPSIS":"548.353","ARG_OF_PERICENTER":"72.3730","RA_OF_ASC_NODE":"227.2762","OBJECT_NAME":"STARLINK-2167","CENTER_NAME":"EARTH"},{"MEAN_ELEMENT_THEORY":"SGP4","LAUNCH_DATE":"2021-05-15","ELEMENT_SET_NO":"999","APOAPSIS":"548.128","ARG_OF_PERICENTER":"82.1045","MEAN_ANOMALY":"278.0096","SEMIMAJOR_AXIS":"6925.335","REF_FRAME":"TEME","TLE_LINE2":"2 48561  53.0533 194.8078 0001339  82.1045 278.0096 15.06404349 69113","CENTER_NAME":"EARTH","OBJECT_NAME":"STARLINK-2186","RA_OF_ASC_NODE":"194.8078","NORAD_CAT_ID":"48561","MEAN_MOTION_DDOT":"0.0000000000000","EPHEMERIS_TYPE":"0","GP_ID":"210163169","FILE":"3535825","ECCENTRICITY":"0.00013390","DECAY_DATE":null,"PERIOD":"95.592","TLE_LINE1":"1 48561U 21041J   22225.90577361  .00003054  00000-0  22382-3 0  9995","MEAN_MOTION":"15.06404349","SITE":"AFETR","RCS_SIZE":"LARGE","COUNTRY_CODE":"US","MEAN_MOTION_DOT":"0.00003054","CLASSIFICATION_TYPE":"U","TIME_SYSTEM":"UTC","OBJECT_ID":"2021-041J","PERIAPSIS":"546.273","INCLINATION":"53.0533","OBJECT_TYPE":"PAYLOAD","REV_AT_EPOCH":"6911","BSTAR":"0.00022382000000","EPOCH":"2022-08-13T21:44:18.839904"},{"PERIOD":"95.592","TLE_LINE1":"1 48562U 21041K   22225.30216748  .00001301  00000-0  10622-3 0  9996","MEAN_MOTION":"15.06398525","SITE":"AFETR","RCS_SIZE":"LARGE","COUNTRY_CODE":"US","MEAN_MOTION_DOT":"0.00001301","CLASSIFICATION_TYPE":"U","TIME_SYSTEM":"UTC","OBJECT_ID":"2021-041K","PERIAPSIS":"546.427","INCLINATION":"53.0535","OBJECT_TYPE":"PAYLOAD","REV_AT_EPOCH":"6860","BSTAR":"0.00010622000000","EPOCH":"2022-08-13T07:15:07.270272","MEAN_ELEMENT_THEORY":"SGP4","LAUNCH_DATE":"2021-05-15","ELEMENT_SET_NO":"999","APOAPSIS":"548.009","MEAN_ANOMALY":"285.6349","ARG_OF_PERICENTER":"74.4766","SEMIMAJOR_AXIS":"6925.353","TLE_LINE2":"2 48562  53.0535 227.2387 0001142  74.4766 285.6349 15.06398525 68602","REF_FRAME":"TEME","OBJECT_NAME":"STARLINK-2187","CENTER_NAME":"EARTH","RA_OF_ASC_NODE":"227.2387","NORAD_CAT_ID":"48562","MEAN_MOTION_DDOT":"0.0000000000000","EPHEMERIS_TYPE":"0","GP_ID":"210137711","FILE":"3535824","ECCENTRICITY":"0.00011420","DECAY_DATE":null},{"INCLINATION":"53.0526","OBJECT_TYPE":"PAYLOAD","BSTAR":"0.00012955000000","EPOCH":"2022-08-13T09:17:11.976288","REV_AT_EPOCH":"6861","SITE":"AFETR","RCS_SIZE":"LARGE","COUNTRY_CODE":"US","PERIOD":"95.592","TLE_LINE1":"1 48563U 21041L   22225.38694417  .00001649  00000-0  12955-3 0  9994","MEAN_MOTION":"15.06402478","PERIAPSIS":"546.211","MEAN_MOTION_DOT":"0.00001649","CLASSIFICATION_TYPE":"U","OBJECT_ID":"2021-041L","TIME_SYSTEM":"UTC","NORAD_CAT_ID":"48563","FILE":"3535824","ECCENTRICITY":"0.00014360","DECAY_DATE":null,"EPHEMERIS_TYPE":"0","MEAN_MOTION_DDOT":"0.0000000000000","GP_ID":"210137962","LAUNCH_DATE":"2021-05-15","ELEMENT_SET_NO":"999","MEAN_ELEMENT_THEORY":"SGP4","OBJECT_NAME":"STARLINK-2188","CENTER_NAME":"EARTH","RA_OF_ASC_NODE":"226.8580","MEAN_ANOMALY":"297.5116","APOAPSIS":"548.200","ARG_OF_PERICENTER":"62.6019","SEMIMAJOR_AXIS":"6925.341","REF_FRAME":"TEME","TLE_LINE2":"2 48563  53.0526 226.8580 0001436  62.6019 297.5116 15.06402478 68617"},{"REV_AT_EPOCH":"6861","EPOCH":"2022-08-13T09:06:36.112032","BSTAR":"0.00016837000000","OBJECT_TYPE":"PAYLOAD","INCLINATION":"53.0539","TIME_SYSTEM":"UTC","OBJECT_ID":"2021-041M","CLASSIFICATION_TYPE":"U","MEAN_MOTION_DOT":"0.00002227","PERIAPSIS":"546.199","MEAN_MOTION":"15.06397617","TLE_LINE1":"1 48564U 21041M   22225.37958463  .00002227  00000-0  16837-3 0  9994","PERIOD":"95.592","COUNTRY_CODE":"US","RCS_SIZE":"LARGE","SITE":"AFETR","GP_ID":"210138212","MEAN_MOTION_DDOT":"0.0000000000000","EPHEMERIS_TYPE":"0","DECAY_DATE":null,"ECCENTRICITY":"0.00014750","FILE":"3535824","NORAD_CAT_ID":"48564","REF_FRAME":"TEME","TLE_LINE2":"2 48564  53.0539 226.9087 0001475  74.0394 286.0758 15.06397617 68614","SEMIMAJOR_AXIS":"6925.356","ARG_OF_PERICENTER":"74.0394","APOAPSIS":"548.242","MEAN_ANOMALY":"286.0758","RA_OF_ASC_NODE":"226.9087","CENTER_NAME":"EARTH","OBJECT_NAME":"STARLINK-2190","MEAN_ELEMENT_THEORY":"SGP4","ELEMENT_SET_NO":"999","LAUNCH_DATE":"2021-05-15"},{"DECAY_DATE":null,"ECCENTRICITY":"0.00013560","FILE":"3535824","GP_ID":"210136962","MEAN_MOTION_DDOT":"0.0000000000000","EPHEMERIS_TYPE":"0","NORAD_CAT_ID":"48565","RA_OF_ASC_NODE":"226.6098","CENTER_NAME":"EARTH","OBJECT_NAME":"STARLINK-2191","REF_FRAME":"TEME","TLE_LINE2":"2 48565  53.0535 226.6098 0001356  74.8150 285.2989 15.06390482 68627","SEMIMAJOR_AXIS":"6925.378","ARG_OF_PERICENTER":"74.8150","APOAPSIS":"548.182","MEAN_ANOMALY":"285.2989","ELEMENT_SET_NO":"999","LAUNCH_DATE":"2021-05-15","MEAN_ELEMENT_THEORY":"SGP4","EPOCH":"2022-08-13T10:35:28.749408","BSTAR":"0.00015951000000","REV_AT_EPOCH":"6862","OBJECT_TYPE":"PAYLOAD","INCLINATION":"53.0535","PERIAPSIS":"546.304","TIME_SYSTEM":"UTC","OBJECT_ID":"2021-041N","CLASSIFICATION_TYPE":"U","MEAN_MOTION_DOT":"0.00002095","COUNTRY_CODE":"US","RCS_SIZE":"LARGE","SITE":"AFETR","MEAN_MOTION":"15.06390482","TLE_LINE1":"1 48565U 21041N   22225.44130497  .00002095  00000-0  15951-3 0  9991","PERIOD":"95.593"},{"PERIOD":"95.593","TLE_LINE1":"1 48566U 21041P   22225.46343279  .00001862  00000-0  14392-3 0  9997","MEAN_MOTION":"15.06391419","SITE":"AFETR","RCS_SIZE":"MEDIUM","COUNTRY_CODE":"US","MEAN_MOTION_DOT":"0.00001862","CLASSIFICATION_TYPE":"U","TIME_SYSTEM":"UTC","OBJECT_ID":"2021-041P","PERIAPSIS":"546.173","INCLINATION":"53.0539","OBJECT_TYPE":"PAYLOAD","REV_AT_EPOCH":"6848","BSTAR":"0.00014392000000","EPOCH":"2022-08-13T11:07:20.593056","MEAN_ELEMENT_THEORY":"SGP4","LAUNCH_DATE":"2021-05-15","ELEMENT_SET_NO":"999","MEAN_ANOMALY":"296.3682","APOAPSIS":"548.306","ARG_OF_PERICENTER":"63.7465","SEMIMAJOR_AXIS":"6925.375","REF_FRAME":"TEME","TLE_LINE2":"2 48566  53.0539 236.4904 0001540  63.7465 296.3682 15.06391419 68486","CENTER_NAME":"EARTH","OBJECT_NAME":"STARLINK-2214","RA_OF_ASC_NODE":"236.4904","NORAD_CAT_ID":"48566","EPHEMERIS_TYPE":"0","MEAN_MOTION_DDOT":"0.0000000000000","GP_ID":"210137211","FILE":"3535824","ECCENTRICITY":"0.00015400","DECAY_DATE":null},{"MEAN_ELEMENT_THEORY":"SGP4","LAUNCH_DATE":"2021-05-15","ELEMENT_SET_NO":"999","MEAN_ANOMALY":"276.6641","APOAPSIS":"548.169","ARG_OF_PERICENTER":"83.4500","SEMIMAJOR_AXIS":"6925.380","TLE_LINE2":"2 48567  53.0534 236.7596 0001334  83.4500 276.6641 15.06389643 68473","REF_FRAME":"TEME","OBJECT_NAME":"STARLINK-2215","CENTER_NAME":"EARTH","RA_OF_ASC_NODE":"236.7596","NORAD_CAT_ID":"48567","EPHEMERIS_TYPE":"0","MEAN_MOTION_DDOT":"0.0000000000000","GP_ID":"210138463","FILE":"3535824","ECCENTRICITY":"0.00013340","DECAY_DATE":null,"PERIOD":"95.593","TLE_LINE1":"1 48567U 21041Q   22225.41184165 -.00000373  00000-0 -61460-5 0  9998","MEAN_MOTION":"15.06389643","SITE":"AFETR","RCS_SIZE":"LARGE","COUNTRY_CODE":"US","MEAN_MOTION_DOT":"-0.00000373","CLASSIFICATION_TYPE":"U","OBJECT_ID":"2021-041Q","TIME_SYSTEM":"UTC","PERIAPSIS":"546.321","INCLINATION":"53.0534","OBJECT_TYPE":"PAYLOAD","REV_AT_EPOCH":"6847","BSTAR":"-0.00000614600000","EPOCH":"2022-08-13T09:53:03.118560"}];
